{
  "type": "FeatureCollection",
  "features": [
    {
      "type": "Feature",
      "properties": {
        "norad_id": 66891,
        "name": "STARLINK-35855",
        "group": "last-30-days",
        "lat": -43.05781743786337,
        "lon": -36.0403223213313,
        "alt_km": 395.27595295129504,
        "timestamp": "2025-12-25T20:42:37.409357+00:00",
        "meta_object_name": "STARLINK-35855",
        "meta_object_id": "2025-283P",
        "meta_epoch": "2025-12-25T06:00:04.000320",
        "meta_mean_motion": 15.61839931,
        "meta_eccentricity": 0.00012188,
        "meta_inclination": 53.1597,
        "meta_ra_of_asc_node": 11.4118,
        "meta_arg_of_pericenter": 74.6378,
        "meta_mean_anomaly": 21.8317,
        "meta_ephemeris_type": 0,
        "meta_classification_type": "U",
        "meta_norad_cat_id": 66891,
        "meta_element_set_no": 999,
        "meta_rev_at_epoch": 444,
        "meta_bstar": -0.025889711,
        "meta_mean_motion_dot": -0.02008971,
        "meta_mean_motion_ddot": 0,
        "tle_line1": "1 66891U 25283P   25359.25004630 -.02008971  00000+0 -25890-1 0  9997",
        "tle_line2": "2 66891  53.1597  11.4118 0001218  74.6378  21.8317 15.61839931  4445"
      },
      "geometry": {
        "type": "Point",
        "coordinates": [
          -36.0403223213313,
          -43.05781743786337
        ]
      }
    },
    {
      "type": "Feature",
      "properties": {
        "norad_id": 66892,
        "name": "STARLINK-35883",
        "group": "last-30-days",
        "lat": -41.94737620990411,
        "lon": -33.935166628637354,
        "alt_km": 395.3182135045454,
        "timestamp": "2025-12-25T20:42:37.409367+00:00",
        "meta_object_name": "STARLINK-35883",
        "meta_object_id": "2025-283Q",
        "meta_epoch": "2025-12-25T06:00:04.000320",
        "meta_mean_motion": 15.61839889,
        "meta_eccentricity": 0.00014137,
        "meta_inclination": 53.1601,
        "meta_ra_of_asc_node": 11.4071,
        "meta_arg_of_pericenter": 75.3816,
        "meta_mean_anomaly": 23.005,
        "meta_ephemeris_type": 0,
        "meta_classification_type": "U",
        "meta_norad_cat_id": 66892,
        "meta_element_set_no": 999,
        "meta_rev_at_epoch": 438,
        "meta_bstar": -0.025898142,
        "meta_mean_motion_dot": -0.02009687,
        "meta_mean_motion_ddot": 0,
        "tle_line1": "1 66892U 25283Q   25359.25004630 -.02009687  00000+0 -25898-1 0  9991",
        "tle_line2": "2 66892  53.1601  11.4071 0001413  75.3816  23.0050 15.61839889  4385"
      },
      "geometry": {
        "type": "Point",
        "coordinates": [
          -33.935166628637354,
          -41.94737620990411
        ]
      }
    },
    {
      "type": "Feature",
      "properties": {
        "norad_id": 66893,
        "name": "STARLINK-36033",
        "group": "last-30-days",
        "lat": -40.794382534842114,
        "lon": -31.894851921479127,
        "alt_km": 395.12705551143426,
        "timestamp": "2025-12-25T20:42:37.409380+00:00",
        "meta_object_name": "STARLINK-36033",
        "meta_object_id": "2025-283R",
        "meta_epoch": "2025-12-25T06:00:04.000320",
        "meta_mean_motion": 15.61836566,
        "meta_eccentricity": 0.00012785,
        "meta_inclination": 53.1599,
        "meta_ra_of_asc_node": 11.4031,
        "meta_arg_of_pericenter": 72.1532,
        "meta_mean_anomaly": 28.1507,
        "meta_ephemeris_type": 0,
        "meta_classification_type": "U",
        "meta_norad_cat_id": 66893,
        "meta_element_set_no": 999,
        "meta_rev_at_epoch": 444,
        "meta_bstar": -0.025797055,
        "meta_mean_motion_dot": -0.02002481,
        "meta_mean_motion_ddot": 0,
        "tle_line1": "1 66893U 25283R   25359.25004630 -.02002481  00000+0 -25797-1 0  9995",
        "tle_line2": "2 66893  53.1599  11.4031 0001278  72.1532  28.1507 15.61836566  4446"
      },
      "geometry": {
        "type": "Point",
        "coordinates": [
          -31.894851921479127,
          -40.794382534842114
        ]
      }
    },
    {
      "type": "Feature",
      "properties": {
        "norad_id": 66894,
        "name": "STARLINK-35718",
        "group": "last-30-days",
        "lat": -39.609742703851985,
        "lon": -29.929128191436902,
        "alt_km": 395.0577041312663,
        "timestamp": "2025-12-25T20:42:37.409398+00:00",
        "meta_object_name": "STARLINK-35718",
        "meta_object_id": "2025-283S",
        "meta_epoch": "2025-12-25T06:00:04.000320",
        "meta_mean_motion": 15.61836722,
        "meta_eccentricity": 0.00012594,
        "meta_inclination": 53.1599,
        "meta_ra_of_asc_node": 11.4001,
        "meta_arg_of_pericenter": 73.6838,
        "meta_mean_anomaly": 28.5373,
        "meta_ephemeris_type": 0,
        "meta_classification_type": "U",
        "meta_norad_cat_id": 66894,
        "meta_element_set_no": 999,
        "meta_rev_at_epoch": 444,
        "meta_bstar": -0.025802126,
        "meta_mean_motion_dot": -0.02002823,
        "meta_mean_motion_ddot": 0,
        "tle_line1": "1 66894U 25283S   25359.25004630 -.02002823  00000+0 -25802-1 0  9993",
        "tle_line2": "2 66894  53.1599  11.4001 0001259  73.6838  28.5373 15.61836722  4447"
      },
      "geometry": {
        "type": "Point",
        "coordinates": [
          -29.929128191436902,
          -39.609742703851985
        ]
      }
    },
    {
      "type": "Feature",
      "properties": {
        "norad_id": 66895,
        "name": "STARLINK-35971",
        "group": "last-30-days",
        "lat": -37.14812143515164,
        "lon": -26.20183009033466,
        "alt_km": 394.9145154889775,
        "timestamp": "2025-12-25T20:42:37.409409+00:00",
        "meta_object_name": "STARLINK-35971",
        "meta_object_id": "2025-283T",
        "meta_epoch": "2025-12-25T06:00:04.000320",
        "meta_mean_motion": 15.61837626,
        "meta_eccentricity": 0.00012959,
        "meta_inclination": 53.1599,
        "meta_ra_of_asc_node": 11.3901,
        "meta_arg_of_pericenter": 74.058,
        "meta_mean_anomaly": 31.9959,
        "meta_ephemeris_type": 0,
        "meta_classification_type": "U",
        "meta_norad_cat_id": 66895,
        "meta_element_set_no": 999,
        "meta_rev_at_epoch": 444,
        "meta_bstar": -0.025823054,
        "meta_mean_motion_dot": -0.02004336,
        "meta_mean_motion_ddot": 0,
        "tle_line1": "1 66895U 25283T   25359.25004630 -.02004336  00000+0 -25823-1 0  9998",
        "tle_line2": "2 66895  53.1599  11.3901 0001295  74.0580  31.9959 15.61837626  4447"
      },
      "geometry": {
        "type": "Point",
        "coordinates": [
          -26.20183009033466,
          -37.14812143515164
        ]
      }
    },
    {
      "type": "Feature",
      "properties": {
        "norad_id": 66896,
        "name": "STARLINK-35791",
        "group": "last-30-days",
        "lat": -38.39547528224549,
        "lon": -28.036804134535867,
        "alt_km": 394.97369967458053,
        "timestamp": "2025-12-25T20:42:37.409419+00:00",
        "meta_object_name": "STARLINK-35791",
        "meta_object_id": "2025-283U",
        "meta_epoch": "2025-12-25T06:00:04.000320",
        "meta_mean_motion": 15.61840805,
        "meta_eccentricity": 0.00012329,
        "meta_inclination": 53.16,
        "meta_ra_of_asc_node": 11.3944,
        "meta_arg_of_pericenter": 72.8397,
        "meta_mean_anomaly": 31.2968,
        "meta_ephemeris_type": 0,
        "meta_classification_type": "U",
        "meta_norad_cat_id": 66896,
        "meta_element_set_no": 999,
        "meta_rev_at_epoch": 444,
        "meta_bstar": -0.025897131,
        "meta_mean_motion_dot": -0.02009546,
        "meta_mean_motion_ddot": 0,
        "tle_line1": "1 66896U 25283U   25359.25004630 -.02009546  00000+0 -25897-1 0  9998",
        "tle_line2": "2 66896  53.1600  11.3944 0001232  72.8397  31.2968 15.61840805  4447"
      },
      "geometry": {
        "type": "Point",
        "coordinates": [
          -28.036804134535867,
          -38.39547528224549
        ]
      }
    },
    {
      "type": "Feature",
      "properties": {
        "norad_id": 66897,
        "name": "STARLINK-36079",
        "group": "last-30-days",
        "lat": -35.87433411329195,
        "lon": -24.426888182599495,
        "alt_km": 394.80040765238664,
        "timestamp": "2025-12-25T20:42:37.409432+00:00",
        "meta_object_name": "STARLINK-36079",
        "meta_object_id": "2025-283V",
        "meta_epoch": "2025-12-25T06:00:04.000320",
        "meta_mean_motion": 15.6183792,
        "meta_eccentricity": 0.00012331,
        "meta_inclination": 53.1601,
        "meta_ra_of_asc_node": 11.3871,
        "meta_arg_of_pericenter": 73.952,
        "meta_mean_anomaly": 34.0195,
        "meta_ephemeris_type": 0,
        "meta_classification_type": "U",
        "meta_norad_cat_id": 66897,
        "meta_element_set_no": 999,
        "meta_rev_at_epoch": 444,
        "meta_bstar": -0.025838473,
        "meta_mean_motion_dot": -0.02005358,
        "meta_mean_motion_ddot": 0,
        "tle_line1": "1 66897U 25283V   25359.25004630 -.02005358  00000+0 -25838-1 0  9991",
        "tle_line2": "2 66897  53.1601  11.3871 0001233  73.9520  34.0195 15.61837920  4446"
      },
      "geometry": {
        "type": "Point",
        "coordinates": [
          -24.426888182599495,
          -35.87433411329195
        ]
      }
    }
  ]
}